<?xml version="1.0" encoding="UTF-8"?>
<gpx version="1.1" creator="PlanUltra" xmlns="http://www.topografix.com/GPX/1/1">
  <metadata>
    <name>Leadville Trail 100</name>
    <desc>Leadville Trail 100 Run - Leadville, CO - ~100 miles</desc>
  </metadata>
  <wpt lat="39.2508" lon="-106.2925"><ele>3094</ele><name>Start/Finish - 6th St Leadville</name></wpt>
  <wpt lat="39.2400" lon="-106.3100"><ele>3048</ele><name>May Queen (mile 13.5)</name></wpt>
  <wpt lat="39.2100" lon="-106.3500"><ele>3353</ele><name>Fish Hatchery (mile 23.5)</name></wpt>
  <wpt lat="39.1800" lon="-106.3800"><ele>3048</ele><name>Half Pipe (mile 30)</name></wpt>
  <wpt lat="39.1500" lon="-106.4100"><ele>3353</ele><name>Twin Lakes (mile 39.5)</name></wpt>
  <wpt lat="39.1200" lon="-106.4600"><ele>3962</ele><name>Hope Pass (mile 44.5)</name></wpt>
  <wpt lat="39.0900" lon="-106.4900"><ele>3048</ele><name>Winfield (mile 50)</name></wpt>
  <wpt lat="39.1200" lon="-106.4600"><ele>3962</ele><name>Hope Pass (mile 55.5)</name></wpt>
  <wpt lat="39.1500" lon="-106.4100"><ele>3353</ele><name>Twin Lakes (mile 60.5)</name></wpt>
  <wpt lat="39.1800" lon="-106.3800"><ele>3048</ele><name>Half Pipe (mile 69.5)</name></wpt>
  <wpt lat="39.2100" lon="-106.3500"><ele>3353</ele><name>Fish Hatchery (mile 76.5)</name></wpt>
  <wpt lat="39.2400" lon="-106.3100"><ele>3048</ele><name>May Queen (mile 86.5)</name></wpt>
  <wpt lat="39.2508" lon="-106.2925"><ele>3094</ele><name>Finish - Leadville</name></wpt>
  <trk>
    <name>Leadville Trail 100</name>
    <trkseg>
      <trkpt lat="39.2508" lon="-106.2925"><ele>3094</ele></trkpt>
      <trkpt lat="39.2450" lon="-106.3000"><ele>3100</ele></trkpt>
      <trkpt lat="39.2400" lon="-106.3100"><ele>3048</ele></trkpt>
      <trkpt lat="39.2300" lon="-106.3200"><ele>3100</ele></trkpt>
      <trkpt lat="39.2200" lon="-106.3300"><ele>3200</ele></trkpt>
      <trkpt lat="39.2150" lon="-106.3400"><ele>3280</ele></trkpt>
      <trkpt lat="39.2100" lon="-106.3500"><ele>3353</ele></trkpt>
      <trkpt lat="39.2000" lon="-106.3600"><ele>3200</ele></trkpt>
      <trkpt lat="39.1900" lon="-106.3700"><ele>3100</ele></trkpt>
      <trkpt lat="39.1800" lon="-106.3800"><ele>3048</ele></trkpt>
      <trkpt lat="39.1700" lon="-106.3900"><ele>3100</ele></trkpt>
      <trkpt lat="39.1600" lon="-106.4000"><ele>3200</ele></trkpt>
      <trkpt lat="39.1500" lon="-106.4100"><ele>3353</ele></trkpt>
      <trkpt lat="39.1400" lon="-106.4250"><ele>3600</ele></trkpt>
      <trkpt lat="39.1300" lon="-106.4400"><ele>3800</ele></trkpt>
      <trkpt lat="39.1200" lon="-106.4600"><ele>3962</ele></trkpt>
      <trkpt lat="39.1100" lon="-106.4750"><ele>3700</ele></trkpt>
      <trkpt lat="39.0900" lon="-106.4900"><ele>3048</ele></trkpt>
      <trkpt lat="39.1100" lon="-106.4750"><ele>3700</ele></trkpt>
      <trkpt lat="39.1200" lon="-106.4600"><ele>3962</ele></trkpt>
      <trkpt lat="39.1300" lon="-106.4400"><ele>3800</ele></trkpt>
      <trkpt lat="39.1400" lon="-106.4250"><ele>3600</ele></trkpt>
      <trkpt lat="39.1500" lon="-106.4100"><ele>3353</ele></trkpt>
      <trkpt lat="39.1600" lon="-106.4000"><ele>3200</ele></trkpt>
      <trkpt lat="39.1700" lon="-106.3900"><ele>3100</ele></trkpt>
      <trkpt lat="39.1800" lon="-106.3800"><ele>3048</ele></trkpt>
      <trkpt lat="39.1900" lon="-106.3700"><ele>3100</ele></trkpt>
      <trkpt lat="39.2000" lon="-106.3600"><ele>3200</ele></trkpt>
      <trkpt lat="39.2100" lon="-106.3500"><ele>3353</ele></trkpt>
      <trkpt lat="39.2150" lon="-106.3400"><ele>3280</ele></trkpt>
      <trkpt lat="39.2200" lon="-106.3300"><ele>3200</ele></trkpt>
      <trkpt lat="39.2300" lon="-106.3200"><ele>3100</ele></trkpt>
      <trkpt lat="39.2400" lon="-106.3100"><ele>3048</ele></trkpt>
      <trkpt lat="39.2450" lon="-106.3000"><ele>3100</ele></trkpt>
      <trkpt lat="39.2508" lon="-106.2925"><ele>3094</ele></trkpt>
    </trkseg>
  </trk>
</gpx>
